[{"OBJECT_NAME":"SHIYAN-13 (SY-13)","OBJECT_ID":"2022-004A","EPOCH":"2026-03-09T23:59:10.497984","MEAN_MOTION":14.19820132,"ECCENTRICITY":0.06076023,"INCLINATION":98.4671,"RA_OF_ASC_NODE":92.2685,"ARG_OF_PERICENTER":122.0091,"MEAN_ANOMALY":244.1614,"EPHEMERIS_TYPE":0,"CLASSIFICATION_TYPE":"U","NORAD_CAT_ID":51102,"ELEMENT_SET_NO":999,"REV_AT_EPOCH":21321,"BSTAR":0.0002501462,"MEAN_MOTION_DOT":3.736e-5,"MEAN_MOTION_DDOT":0},{"OBJECT_NAME":"STARLINK-4750","OBJECT_ID":"2022-114Z","EPOCH":"2026-03-09T21:55:59.618208","MEAN_MOTION":15.08845466,"ECCENTRICITY":0.00013673,"INCLINATION":53.2168,"RA_OF_ASC_NODE":293.239,"ARG_OF_PERICENTER":110.8884,"MEAN_ANOMALY":249.2255,"EPHEMERIS_TYPE":0,"CLASSIFICATION_TYPE":"U","NORAD_CAT_ID":53841,"ELEMENT_SET_NO":999,"REV_AT_EPOCH":19300,"BSTAR":-3.8925168e-5,"MEAN_MOTION_DOT":-9.07e-6,"MEAN_MOTION_DDOT":0}]
